NORAD_CAT_ID,OBJECT_NAME,OBJECT_TYPE,EPOCH,MEAN_MOTION,ECCENTRICITY,INCLINATION,RA_OF_ASC_NODE,ARG_OF_PERICENTER,MEAN_ANOMALY,BSTAR,MEAN_MOTION_DOT,MEAN_MOTION_DDOT,TLE_LINE0,TLE_LINE1,TLE_LINE2,SEMIMAJOR_AXIS,PERIOD,APOGEE,PERIGEE,DECAYED
51769.0,STARLINK-3621,PAYLOAD,2022-05-05 22:00:00,15.40522799,0.0001737,53.2169,163.328,33.8399,203.7495,-0.018167,-0.00694017,0.0,0 STARLINK-3621,1 51769U 22017B   22125.91667824 -.00694017  00000-0 -18167-1 0  9998,2 51769  53.2169 163.3280 0001737  33.8399 203.7495 15.40522799 12100,6822.7019999999975,93.475,445.752,443.382,0.0
51769.0,STARLINK-3621,PAYLOAD,2022-05-06 14:00:01,15.39518352,0.0001516,53.2172,160.1855,41.5701,294.1475,-0.019443,-0.00716569,0.0,0 STARLINK-3621,1 51769U 22017B   22126.58334491 -.00716569  00000-0 -19443-1 0  9998,2 51769  53.2172 160.1855 0001516  41.5701 294.1475 15.39518352 12206,6825.67,93.536,448.569,446.5,0.0
51769.0,STARLINK-3621,PAYLOAD,2022-05-07 14:00:01,15.37988091,0.0001663,53.2171,155.4795,39.5121,78.8132,-0.020437,-0.00716261,0.0,0 STARLINK-3621,1 51769U 22017B   22127.58334491 -.00716261  00000-0 -20437-1 0  9993,2 51769  53.2171 155.4795 0001663  39.5121  78.8132 15.37988091 12353,6830.196,93.629,453.197,450.926,0.0
51769.0,STARLINK-3621,PAYLOAD,2022-05-07 22:00:00,15.3747807,0.0001717,53.2171,153.9113,40.5415,124.0951,-0.020788,-0.00716506,0.0,0 STARLINK-3621,1 51769U 22017B   22127.91667824 -.00716506  00000-0 -20788-1 0  9990,2 51769  53.2171 153.9113 0001717  40.5415 124.0951 15.37478070  3688,6831.706999999999,93.66,454.745,452.399,0.0
51769.0,STARLINK-3621,PAYLOAD,2022-05-08 14:00:01,15.36459718,0.0001579,53.2171,150.7842,48.4221,206.9947,-0.021559,-0.00718677,0.0,0 STARLINK-3621,1 51769U 22017B   22128.58334491 -.00718677  00000-0 -21559-1 0  9993,2 51769  53.2171 150.7842 0001579  48.4221 206.9947 15.36459718 12514,6834.725,93.722,457.669,455.511,0.0
51769.0,STARLINK-3621,PAYLOAD,2022-05-08 22:00:00,15.35947158,0.0001593,53.2173,149.2197,41.835,258.0558,-0.021786,-0.00714627,0.0,0 STARLINK-3621,1 51769U 22017B   22128.91667824 -.00714627  00000-0 -21786-1 0  9992,2 51769  53.2173 149.2197 0001593  41.8350 258.0558 15.35947158  3670,6836.246,93.753,459.2,457.022,0.0
51769.0,STARLINK-3621,PAYLOAD,2022-05-09 14:00:01,15.34929539,0.0001445,53.2172,146.0998,44.5498,342.5082,-0.022618,-0.00717729,0.0,0 STARLINK-3621,1 51769U 22017B   22129.58335648 -.00717729  00000-0 -22618-1 0  9993,2 51769  53.2172 146.0998 0001445  44.5498 342.5082 15.34929539 12664,6839.267,93.815,462.12,460.144,0.0
51769.0,STARLINK-3621,PAYLOAD,2022-05-09 22:00:00,15.34418032,0.0001710999999999,53.2173,144.539,34.7043,34.9251,-0.022947,-0.00716475,0.0,0 STARLINK-3621,1 51769U 22017B   22129.91667824 -.00716475  00000-0 -22947-1 0  9996,2 51769  53.2173 144.5390 0001711  34.7043  34.9251 15.34418032  3679,6840.7869999999975,93.847,463.822,461.481,0.0
51769.0,STARLINK-3621,PAYLOAD,2022-05-10 14:00:01,15.33398937,0.0001839,53.2172,141.4264,37.8168,115.2397,-0.023724,-0.00717029,0.0,0 STARLINK-3621,1 51769U 22017B   22130.58334491 -.00717029  00000-0 -23724-1 0  9992,2 51769  53.2172 141.4264 0001839  37.8168 115.2397 15.33398937 12817,6843.816999999999,93.909,466.941,464.424,0.0
51769.0,STARLINK-3621,PAYLOAD,2022-05-10 18:00:00,15.33144469,0.0001703,53.217,140.6482,31.7701,321.7605,-0.02396,-0.00718217,0.0,0 STARLINK-3621,1 51769U 22017B   22130.75001157 -.00718217  00000-0 -23960-1 0  9993,2 51769  53.2170 140.6482 0001703  31.7701 321.7605 15.33144469  3651,6844.574000000001,93.925,467.605,465.274,0.0
51769.0,STARLINK-3621,PAYLOAD,2022-05-11 22:00:00,15.31357288,0.0001504,53.2174,135.2103,48.2699,264.29200000000003,-0.025211,-0.00714556,0.0,0 STARLINK-3621,1 51769U 22017B   22131.91667824 -.00714556  00000-0 -25211-1 0  9994,2 51769  53.2174 135.2103 0001504  48.2699 264.2920 15.31357288 13029,6849.899,94.034,472.794,470.734,0.0
51769.0,STARLINK-3621,PAYLOAD,2022-05-12 14:00:01,15.30340157,0.0001534,53.2173,132.1119,42.2092,346.4256,-0.026184,-0.00718575,0.0,0 STARLINK-3621,1 51769U 22017B   22132.58334491 -.00718575  00000-0 -26184-1 0  9994,2 51769  53.2173 132.1119 0001534  42.2092 346.4256 15.30340157  1304,6852.934,94.097,475.85,473.747,0.0
51769.0,STARLINK-3621,PAYLOAD,2022-05-12 22:00:00,15.29827963,0.0001571,53.2174,130.5622,42.2078,23.5474,-0.026483,-0.00715541,0.0,0 STARLINK-3621,1 51769U 22017B   22132.91667824 -.00715541  00000-0 -26483-1 0  9992,2 51769  53.2174 130.5622 0001571  42.2078  23.5474 15.29827963  1309,6854.4630000000025,94.128,477.405,475.251,0.0
51769.0,STARLINK-3621,PAYLOAD,2022-05-13 06:00:00,15.29319666,0.0001909,53.2174,129.0172,34.974000000000004,67.2849,-0.027001,-0.00717973,0.0,0 STARLINK-3621,1 51769U 22017B   22133.25001157 -.00717973  00000-0 -27001-1 0  9999,2 51769  53.2174 129.0172 0001909  34.9740  67.2849 15.29319666 13222,6855.982,94.16,479.156,476.538,0.0
51769.0,STARLINK-3621,PAYLOAD,2022-05-13 14:00:01,15.28808784,0.0001603,53.2172,127.4709,48.3276,89.8246,-0.027349,-0.0072423,0.0,0 STARLINK-3621,1 51769U 22017B   22133.58334491 -.00724230  00000-0 -27349-1 0  9994,2 51769  53.2172 127.4709 0001603  48.3276  89.8246 15.28808784  1302,6857.509,94.191,480.473,478.275,0.0
51769.0,STARLINK-3621,PAYLOAD,2022-05-13 22:00:00,15.28299943,0.0001558,53.2173,125.9251,53.9553,119.4772,-0.027883,-0.00726708,0.0,0 STARLINK-3621,1 51769U 22017B   22133.91667824 -.00726708  00000-0 -27883-1 0  9995,2 51769  53.2173 125.9251 0001558  53.9553 119.4772 15.28299943  1302,6859.031,94.222,481.965,479.828,0.0
51769.0,STARLINK-3621,PAYLOAD,2022-05-14 14:00:01,15.27280194,0.0001701,53.2172,122.8407,46.2812,195.8722,-0.028778,-0.00726949,0.0,0 STARLINK-3621,1 51769U 22017B   22134.58334491 -.00726949  00000-0 -28778-1 0  9991,2 51769  53.2172 122.8407 0001701  46.2812 195.8722 15.27280194  1303,6862.084,94.285,485.116,482.782,0.0
51769.0,STARLINK-3621,PAYLOAD,2022-05-14 16:00:00,15.27153189,0.0001541,53.2174,122.4549,45.1316,295.4399,-0.028935,-0.00727989,0.0,0 STARLINK-3621,1 51769U 22017B   22134.66667824 -.00727989  00000-0 -28935-1 0  9999,2 51769  53.2174 122.4549 0001541  45.1316 295.4399 15.27153189 13445,6862.464,94.293,485.387,483.272,0.0
51769.0,STARLINK-3621,PAYLOAD,2022-05-14 22:00:00,15.26768436,0.0001595,53.2175,121.2984,49.6869,225.9095,-0.029088,-0.00723615,0.0,0 STARLINK-3621,1 51769U 22017B   22134.91667824 -.00723615  00000-0 -29088-1 0  9999,2 51769  53.2175 121.2984 0001595  49.6869 225.9095 15.26768436  1306,6863.6169999999975,94.317,486.577,484.388,0.0
51769.0,STARLINK-3621,PAYLOAD,2022-05-15 14:00:01,15.25750411,0.0001457,53.2173,118.2213,49.8282,290.8754,-0.030166,-0.00727303,0.0,0 STARLINK-3621,1 51769U 22017B   22135.58335648 -.00727303  00000-0 -30166-1 0  9996,2 51769  53.2173 118.2213 0001457  49.8282 290.8754 15.25750411  1309,6866.67,94.38,489.535,487.535,0.0
51769.0,STARLINK-3621,PAYLOAD,2022-05-15 22:00:00,15.25237493,0.0001602,53.2174,116.683,42.3193,329.9254,-0.030382,-0.00721655,0.0,0 STARLINK-3621,1 51769U 22017B   22135.91667824 -.00721655  00000-0 -30382-1 0  9991,2 51769  53.2174 116.6830 0001602  42.3193 329.9254 15.25237493 13636,6868.209,94.412,491.175,488.974,0.0
51769.0,STARLINK-3621,PAYLOAD,2022-05-16 14:00:01,15.24219209,0.0001520999999999,53.2172,113.6128,46.1845,27.4273,-0.03147,-0.00724709,0.0,0 STARLINK-3621,1 51769U 22017B   22136.58334491 -.00724709  00000-0 -31470-1 0  9998,2 51769  53.2172 113.6128 0001521  46.1845  27.4273 15.24219209  1303,6871.268,94.475,494.17800000000005,492.088,0.0
51769.0,STARLINK-3621,PAYLOAD,2022-05-16 22:00:00,15.23708732,0.0001573,53.2175,112.078,49.2491,54.128,-0.031881,-0.00723148,0.0,0 STARLINK-3621,1 51769U 22017B   22136.91667824 -.00723148  00000-0 -31881-1 0  9996,2 51769  53.2175 112.0780 0001573  49.2491  54.1280 15.23708732 13784,6872.803000000001,94.506,495.749,493.587,0.0
51769.0,STARLINK-3621,PAYLOAD,2022-05-17 14:00:01,15.22689353,0.0001599,53.2172,109.0149,50.8837,110.2478,-0.032933,-0.00724544,0.0,0 STARLINK-3621,1 51769U 22017B   22137.58335648 -.00724544  00000-0 -32933-1 0  9996,2 51769  53.2172 109.0149 0001599  50.8837 110.2478 15.22689353  1300,6875.87,94.57,498.834,496.635,0.0
51769.0,STARLINK-3621,PAYLOAD,2022-05-17 20:00:01,15.2230608,0.0001622,53.2173,107.8663,45.223,46.8483,-0.033264,-0.00723611,0.0,0 STARLINK-3621,1 51769U 22017B   22137.83334491 -.00723611  00000-0 -33264-1 0  9991,2 51769  53.2173 107.8663 0001622  45.2230  46.8483 15.22306080 13924,6877.024,94.593,500.004,497.773,0.0
51769.0,STARLINK-3621,PAYLOAD,2022-05-17 22:00:01,15.22179383,0.0001692,53.2175,107.484,49.8752,139.1828,-0.033391,-0.00723655,0.0,0 STARLINK-3621,1 51769U 22017B   22137.91668981 -.00723655  00000-0 -33391-1 0  9993,2 51769  53.2175 107.4840 0001692  49.8752 139.1828 15.22179383  1307,6877.405,94.601,500.434,498.107,0.0
51769.0,STARLINK-3621,PAYLOAD,2022-05-18 14:00:01,15.21160708,0.0001519,53.2173,104.4279,56.6823,186.3265,-0.034571,-0.0072676,0.0,0 STARLINK-3621,1 51769U 22017B   22138.58334491 -.00726760  00000-0 -34571-1 0  9994,2 51769  53.2173 104.4279 0001519  56.6823 186.3265 15.21160708  1300,6880.475,94.665,503.385,501.295,0.0
51769.0,STARLINK-3621,PAYLOAD,2022-05-18 20:00:01,15.20777406,0.0001702,53.2173,103.282,47.2699,125.3633,-0.034906,-0.00725669,0.0,0 STARLINK-3621,1 51769U 22017B   22138.83334491 -.00725669  00000-0 -34906-1 0  9991,2 51769  53.2173 103.2820 0001702  47.2699 125.3633 15.20777406 14078,6881.630999999999,94.688,504.668,502.325,0.0
51769.0,STARLINK-3621,PAYLOAD,2022-05-18 22:00:00,15.20649029,0.0001611,53.2175,102.9006,51.4793,217.6183,-0.034881,-0.00722624,0.0,0 STARLINK-3621,1 51769U 22017B   22138.91667824 -.00722624  00000-0 -34881-1 0  9999,2 51769  53.2175 102.9006 0001611  51.4793 217.6183 15.20649029  1309,6882.019,94.696,504.992,502.775,0.0
